{"type": "FeatureCollection", "features": [ {"type": "Feature", "properties": {"norad_id": 30381, "name": "FENGYUN 1C DEB", "group": "fengyun-1c-debris", "lat": -78.69338664261316, "lon": 61.24912780152991, "alt_km": 895.958832139263, "timestamp": "2025-12-01T03:58:50.090248+00:00", "meta": {"OBJECT_NAME": "FENGYUN 1C DEB", "OBJECT_ID": "1999-025ACU", "EPOCH": "2025-11-30T13:04:45.696576", "MEAN_MOTION": 14.12876998, "ECCENTRICITY": 0.0055214, "INCLINATION": 98.8155, "RA_OF_ASC_NODE": 9.7285, "ARG_OF_PERICENTER": 110.3512, "MEAN_ANOMALY": 250.3604, "EPHEMERIS_TYPE": 0, "CLASSIFICATION_TYPE": "U", "NORAD_CAT_ID": 30381, "ELEMENT_SET_NO": 999, "REV_AT_EPOCH": 91994, "BSTAR": 0.0010209, "MEAN_MOTION_DOT": 1.884e-05, "MEAN_MOTION_DDOT": 0, "GROUP": "fengyun-1c-debris"}, "tle": {"line1": "1 30381U 99025ACU 25334.54497334  .00001884  00000+0  10209-2 0  9990", "line2": "2 30381  98.8155   9.7285 0055214 110.3512 250.3604 14.12876998919941"}}, "geometry": {"type": "Point", "coordinates": [61.24912780152991, -78.69338664261316]}}, {"type": "Feature", "properties": {"norad_id": 30382, "name": "FENGYUN 1C DEB", "group": "fengyun-1c-debris", "lat": 67.63150120299007, "lon": -144.7933818203006, "alt_km": 779.6058868319851, "timestamp": "2025-12-01T03:58:50.090259+00:00", "meta": {"OBJECT_NAME": "FENGYUN 1C DEB", "OBJECT_ID": "1999-025ACV", "EPOCH": "2025-11-30T16:12:37.260000", "MEAN_MOTION": 14.25207997, "ECCENTRICITY": 0.0155489, "INCLINATION": 98.5008, "RA_OF_ASC_NODE": 13.4203, "ARG_OF_PERICENTER": 32.416, "MEAN_ANOMALY": 81.7401, "EPHEMERIS_TYPE": 0, "CLASSIFICATION_TYPE": "U", "NORAD_CAT_ID": 30382, "ELEMENT_SET_NO": 999, "REV_AT_EPOCH": 97363, "BSTAR": 0.00080965, "MEAN_MOTION_DOT": 2.116e-05, "MEAN_MOTION_DDOT": 0, "GROUP": "fengyun-1c-debris"}, "tle": {"line1": "1 30382U 99025ACV 25334.67543125  .00002116  00000+0  80965-3 0  9991", "line2": "2 30382  98.5008  13.4203 0155489  32.4160  81.7401 14.25207997973634"}}, "geometry": {"type": "Point", "coordinates": [-144.7933818203006, 67.63150120299007]}}, {"type": "Feature", "properties": {"norad_id": 30385, "name": "FENGYUN 1C DEB", "group": "fengyun-1c-debris", "lat": -38.769079116370676, "lon": 167.814060859357, "alt_km": 790.4623615799956, "timestamp": "2025-12-01T03:58:50.090269+00:00", "meta": {"OBJECT_NAME": "FENGYUN 1C DEB", "OBJECT_ID": "1999-025ACY", "EPOCH": "2025-11-30T07:12:52.254720", "MEAN_MOTION": 14.38744495, "ECCENTRICITY": 0.01251239, "INCLINATION": 99.0835, "RA_OF_ASC_NODE": 354.2807, "ARG_OF_PERICENTER": 326.3576, "MEAN_ANOMALY": 95.2721, "EPHEMERIS_TYPE": 0, "CLASSIFICATION_TYPE": "U", "NORAD_CAT_ID": 30385, "ELEMENT_SET_NO": 999, "REV_AT_EPOCH": 98590, "BSTAR": 0.00031985282, "MEAN_MOTION_DOT": 1.022e-05, "MEAN_MOTION_DDOT": 0, "GROUP": "fengyun-1c-debris"}, "tle": {"line1": "1 30385U 99025ACY 25334.30060480  .00001022  00000+0  31985-3 0  9995", "line2": "2 30385  99.0835 354.2807 0125123 326.3576  95.2721 14.38744495985906"}}, "geometry": {"type": "Point", "coordinates": [167.814060859357, -38.769079116370676]}}, {"type": "Feature", "properties": {"norad_id": 30386, "name": "FENGYUN 1C DEB", "group": "fengyun-1c-debris", "lat": 12.512424789987094, "lon": 53.748470802318714, "alt_km": 838.8398000210709, "timestamp": "2025-12-01T03:58:50.090279+00:00", "meta": {"OBJECT_NAME": "FENGYUN 1C DEB", "OBJECT_ID": "1999-025ACZ", "EPOCH": "2025-11-30T04:52:53.522400", "MEAN_MOTION": 13.55522281, "ECCENTRICITY": 0.03034699, "INCLINATION": 98.69, "RA_OF_ASC_NODE": 230.954, "ARG_OF_PERICENTER": 188.4777, "MEAN_ANOMALY": 325.644, "EPHEMERIS_TYPE": 0, "CLASSIFICATION_TYPE": "U", "NORAD_CAT_ID": 30386, "ELEMENT_SET_NO": 999, "REV_AT_EPOCH": 92659, "BSTAR": 0.001361829, "MEAN_MOTION_DOT": 1.234e-05, "MEAN_MOTION_DDOT": 0, "GROUP": "fengyun-1c-debris"}, "tle": {"line1": "1 30386U 99025ACZ 25334.20339725  .00001234  00000+0  13618-2 0  9993", "line2": "2 30386  98.6900 230.9540 0303469 188.4777 325.6440 13.55522281926593"}}, "geometry": {"type": "Point", "coordinates": [53.748470802318714, 12.512424789987094]}}, {"type": "Feature", "properties": {"norad_id": 30387, "name": "FENGYUN 1C DEB", "group": "fengyun-1c-debris", "lat": -46.40464598646514, "lon": -0.2115986498296487, "alt_km": 849.6203616803105, "timestamp": "2025-12-01T03:58:50.090290+00:00", "meta": {"OBJECT_NAME": "FENGYUN 1C DEB", "OBJECT_ID": "1999-025ADA", "EPOCH": "2025-11-29T12:12:02.212416", "MEAN_MOTION": 14.15031814, "ECCENTRICITY": 0.00011712, "INCLINATION": 98.6578, "RA_OF_ASC_NODE": 348.9719, "ARG_OF_PERICENTER": 102.3835, "MEAN_ANOMALY": 51.8564, "EPHEMERIS_TYPE": 0, "CLASSIFICATION_TYPE": "U", "NORAD_CAT_ID": 30387, "ELEMENT_SET_NO": 999, "REV_AT_EPOCH": 97137, "BSTAR": 0.00026731413, "MEAN_MOTION_DOT": 4.75e-06, "MEAN_MOTION_DDOT": 0, "GROUP": "fengyun-1c-debris"}, "tle": {"line1": "1 30387U 99025ADA 25333.50835894  .00000475  00000+0  26731-3 0  9991", "line2": "2 30387  98.6578 348.9719 0001171 102.3835  51.8564 14.15031814971373"}}, "geometry": {"type": "Point", "coordinates": [-0.2115986498296487, -46.40464598646514]}}, {"type": "Feature", "properties": {"norad_id": 30388, "name": "FENGYUN 1C DEB", "group": "fengyun-1c-debris", "lat": 28.554127152616935, "lon": -8.569800467742558, "alt_km": 759.63487011699, "timestamp": "2025-12-01T03:58:50.090300+00:00", "meta": {"OBJECT_NAME": "FENGYUN 1C DEB", "OBJECT_ID": "1999-025ADB", "EPOCH": "2025-11-30T20:12:06.178752", "MEAN_MOTION": 14.19723795, "ECCENTRICITY": 0.0222473, "INCLINATION": 98.6005, "RA_OF_ASC_NODE": 355.8391, "ARG_OF_PERICENTER": 97.0788, "MEAN_ANOMALY": 78.624, "EPHEMERIS_TYPE": 0, "CLASSIFICATION_TYPE": "U", "NORAD_CAT_ID": 30388, "ELEMENT_SET_NO": 999, "REV_AT_EPOCH": 97263, "BSTAR": 0.00039144, "MEAN_MOTION_DOT": 1.017e-05, "MEAN_MOTION_DDOT": 0, "GROUP": "fengyun-1c-debris"}, "tle": {"line1": "1 30388U 99025ADB 25334.84173818  .00001017  00000+0  39144-3 0  9996", "line2": "2 30388  98.6005 355.8391 0222473  97.0788  78.6240 14.19723795972637"}}, "geometry": {"type": "Point", "coordinates": [-8.569800467742558, 28.554127152616935]}}, {"type": "Feature", "properties": {"norad_id": 30389, "name": "FENGYUN 1C DEB", "group": "fengyun-1c-debris", "lat": 28.767705007393054, "lon": -119.13755051368584, "alt_km": 746.5625198237867, "timestamp": "2025-12-01T03:58:50.090311+00:00", "meta": {"OBJECT_NAME": "FENGYUN 1C DEB", "OBJECT_ID": "1999-025ADC", "EPOCH": "2025-11-30T19:30:02.420064", "MEAN_MOTION": 14.43752681, "ECCENTRICITY": 0.0013459, "INCLINATION": 98.8395, "RA_OF_ASC_NODE": 55.5946, "ARG_OF_PERICENTER": 252.8633, "MEAN_ANOMALY": 222.6591, "EPHEMERIS_TYPE": 0, "CLASSIFICATION_TYPE": "U", "NORAD_CAT_ID": 30389, "ELEMENT_SET_NO": 999, "REV_AT_EPOCH": 97614, "BSTAR": 0.0023704, "MEAN_MOTION_DOT": 8.031e-05, "MEAN_MOTION_DDOT": 0, "GROUP": "fengyun-1c-debris"}, "tle": {"line1": "1 30389U 99025ADC 25334.81252801  .00008031  00000+0  23704-2 0  9991", "line2": "2 30389  98.8395  55.5946 0013459 252.8633 222.6591 14.43752681976147"}}, "geometry": {"type": "Point", "coordinates": [-119.13755051368584, 28.767705007393054]}}, {"type": "Feature", "properties": {"norad_id": 30390, "name": "FENGYUN 1C DEB", "group": "fengyun-1c-debris", "lat": -46.682974671815, "lon": -131.25878601276443, "alt_km": 757.4446273677977, "timestamp": "2025-12-01T03:58:50.090321+00:00", "meta": {"OBJECT_NAME": "FENGYUN 1C DEB", "OBJECT_ID": "1999-025ADD", "EPOCH": "2025-11-30T19:05:54.642048", "MEAN_MOTION": 14.29542201, "ECCENTRICITY": 0.0068181, "INCLINATION": 98.8229, "RA_OF_ASC_NODE": 57.8475, "ARG_OF_PERICENTER": 198.6856, "MEAN_ANOMALY": 284.7419, "EPHEMERIS_TYPE": 0, "CLASSIFICATION_TYPE": "U", "NORAD_CAT_ID": 30390, "ELEMENT_SET_NO": 999, "REV_AT_EPOCH": 97213, "BSTAR": 0.0019571, "MEAN_MOTION_DOT": 5.089e-05, "MEAN_MOTION_DDOT": 0, "GROUP": "fengyun-1c-debris"}, "tle": {"line1": "1 30390U 99025ADD 25334.79577132  .00005089  00000+0  19571-2 0  9994", "line2": "2 30390  98.8229  57.8475 0068181 198.6856 284.7419 14.29542201972135"}}, "geometry": {"type": "Point", "coordinates": [-131.25878601276443, -46.682974671815]}}, {"type": "Feature", "properties": {"norad_id": 30391, "name": "FENGYUN 1C DEB", "group": "fengyun-1c-debris", "lat": -18.875082399267686, "lon": 24.359748321621492, "alt_km": 807.3446268342041, "timestamp": "2025-12-01T03:58:50.090332+00:00", "meta": {"OBJECT_NAME": "FENGYUN 1C DEB", "OBJECT_ID": "1999-025ADE", "EPOCH": "2025-11-30T15:13:14.061792", "MEAN_MOTION": 14.16151143, "ECCENTRICITY": 0.0070952, "INCLINATION": 98.7822, "RA_OF_ASC_NODE": 20.8059, "ARG_OF_PERICENTER": 296.9871, "MEAN_ANOMALY": 214.4432, "EPHEMERIS_TYPE": 0, "CLASSIFICATION_TYPE": "U", "NORAD_CAT_ID": 30391, "ELEMENT_SET_NO": 999, "REV_AT_EPOCH": 96707, "BSTAR": 0.0011183, "MEAN_MOTION_DOT": 2.222e-05, "MEAN_MOTION_DDOT": 0, "GROUP": "fengyun-1c-debris"}, "tle": {"line1": "1 30391U 99025ADE 25334.63419053  .00002222  00000+0  11183-2 0  9992", "line2": "2 30391  98.7822  20.8059 0070952 296.9871 214.4432 14.16151143967079"}}, "geometry": {"type": "Point", "coordinates": [24.359748321621492, -18.875082399267686]}}]}